[{"OBJECT_NAME":"METEOSAT-8 (MSG-1)","OBJECT_ID":"2002-040B","EPOCH":"2022-08-18T13:51:37.011744","MEAN_MOTION":1.00267986,"ECCENTRICITY":0.000157,"INCLINATION":8.1499,"RA_OF_ASC_NODE":50.3105,"ARG_OF_PERICENTER":121.2617,"MEAN_ANOMALY":44.692,"EPHEMERIS_TYPE":0,"CLASSIFICATION_TYPE":"U","NORAD_CAT_ID":27509,"ELEMENT_SET_NO":999,"REV_AT_EPOCH":7323,"BSTAR":0,"MEAN_MOTION_DOT":1.26e-6,"MEAN_MOTION_DDOT":0},{"OBJECT_NAME":"INTELSAT 906 (IS-906)","OBJECT_ID":"2002-041A","EPOCH":"2022-08-18T15:24:26.324640","MEAN_MOTION":1.00271068,"ECCENTRICITY":0.0003073,"INCLINATION":2.2259,"RA_OF_ASC_NODE":89.8131,"ARG_OF_PERICENTER":52.8969,"MEAN_ANOMALY":119.5184,"EPHEMERIS_TYPE":0,"CLASSIFICATION_TYPE":"U","NORAD_CAT_ID":27513,"ELEMENT_SET_NO":999,"REV_AT_EPOCH":7300,"BSTAR":0,"MEAN_MOTION_DOT":6.0e-8,"MEAN_MOTION_DDOT":0},{"OBJECT_NAME":"TDRS 10","OBJECT_ID":"2002-055A","EPOCH":"2022-08-18T18:00:29.624832","MEAN_MOTION":1.00271648,"ECCENTRICITY":0.000651,"INCLINATION":8.313,"RA_OF_ASC_NODE":49.6094,"ARG_OF_PERICENTER":354.3739,"MEAN_ANOMALY":22.0846,"EPHEMERIS_TYPE":0,"CLASSIFICATION_TYPE":"U","NORAD_CAT_ID":27566,"ELEMENT_SET_NO":999,"REV_AT_EPOCH":7221,"BSTAR":0,"MEAN_MOTION_DOT":8.0e-7,"MEAN_MOTION_DDOT":0},{"OBJECT_NAME":"NSS-6","OBJECT_ID":"2002-057A","EPOCH":"2022-08-18T13:31:10.352928","MEAN_MOTION":1.0027629,"ECCENTRICITY":0.0003435,"INCLINATION":1.7636,"RA_OF_ASC_NODE":90.9782,"ARG_OF_PERICENTER":66.6374,"MEAN_ANOMALY":202.5915,"EPHEMERIS_TYPE":0,"CLASSIFICATION_TYPE":"U","NORAD_CAT_ID":27603,"ELEMENT_SET_NO":999,"REV_AT_EPOCH":7201,"BSTAR":0,"MEAN_MOTION_DOT":1.0e-6,"MEAN_MOTION_DDOT":0},{"OBJECT_NAME":"NIMIQ 2","OBJECT_ID":"2002-062A","EPOCH":"2022-08-18T15:19:17.069664","MEAN_MOTION":1.00272866,"ECCENTRICITY":0.0007231,"INCLINATION":6.1468,"RA_OF_ASC_NODE":70.0623,"ARG_OF_PERICENTER":101.4671,"MEAN_ANOMALY":276.0567,"EPHEMERIS_TYPE":0,"CLASSIFICATION_TYPE":"U","NORAD_CAT_ID":27632,"ELEMENT_SET_NO":999,"REV_AT_EPOCH":3016,"BSTAR":0,"MEAN_MOTION_DOT":-7.6e-7,"MEAN_MOTION_DDOT":0},{"OBJECT_NAME":"USA 167","OBJECT_ID":"2003-008A","EPOCH":"2022-08-18T14:43:34.175136","MEAN_MOTION":1.00271103,"ECCENTRICITY":0.0001951,"INCLINATION":8.1616,"RA_OF_ASC_NODE":54.2199,"ARG_OF_PERICENTER":64.6309,"MEAN_ANOMALY":298.8894,"EPHEMERIS_TYPE":0,"CLASSIFICATION_TYPE":"U","NORAD_CAT_ID":27691,"ELEMENT_SET_NO":999,"REV_AT_EPOCH":1893,"BSTAR":0,"MEAN_MOTION_DOT":4.4e-7,"MEAN_MOTION_DDOT":0},{"OBJECT_NAME":"USA 169 (MILSTAR-2 4)","OBJECT_ID":"2003-012A","EPOCH":"2022-08-18T19:33:14.194368","MEAN_MOTION":1.00273726,"ECCENTRICITY":0.0002543,"INCLINATION":10.2155,"RA_OF_ASC_NODE":39.8406,"ARG_OF_PERICENTER":133.8745,"MEAN_ANOMALY":238.8872,"EPHEMERIS_TYPE":0,"CLASSIFICATION_TYPE":"U","NORAD_CAT_ID":27711,"ELEMENT_SET_NO":999,"REV_AT_EPOCH":1893,"BSTAR":0,"MEAN_MOTION_DOT":-2.03e-6,"MEAN_MOTION_DDOT":0},{"OBJECT_NAME":"GALAXY 12 (G-12)","OBJECT_ID":"2003-013B","EPOCH":"2022-08-18T14:46:07.000320","MEAN_MOTION":1.00271945,"ECCENTRICITY":0.0001862,"INCLINATION":3.4223,"RA_OF_ASC_NODE":84.938,"ARG_OF_PERICENTER":80.0913,"MEAN_ANOMALY":254.4392,"EPHEMERIS_TYPE":0,"CLASSIFICATION_TYPE":"U","NORAD_CAT_ID":27715,"ELEMENT_SET_NO":999,"REV_AT_EPOCH":3806,"BSTAR":0,"MEAN_MOTION_DOT":4.9e-7,"MEAN_MOTION_DDOT":0},{"OBJECT_NAME":"ASIASAT 4","OBJECT_ID":"2003-014A","EPOCH":"2022-08-18T21:15:19.428192","MEAN_MOTION":1.00271731,"ECCENTRICITY":0.0002614,"INCLINATION":1.1211,"RA_OF_ASC_NODE":93.3293,"ARG_OF_PERICENTER":49.9343,"MEAN_ANOMALY":290.3372,"EPHEMERIS_TYPE":0,"CLASSIFICATION_TYPE":"U","NORAD_CAT_ID":27718,"ELEMENT_SET_NO":999,"REV_AT_EPOCH":3127,"BSTAR":0,"MEAN_MOTION_DOT":-2.29e-6,"MEAN_MOTION_DDOT":0},{"OBJECT_NAME":"HELLAS-SAT 2","OBJECT_ID":"2003-020A","EPOCH":"2022-08-18T20:26:42.515808","MEAN_MOTION":1.00272759,"ECCENTRICITY":0.0005814,"INCLINATION":3.8376,"RA_OF_ASC_NODE":83.9389,"ARG_OF_PERICENTER":70.3336,"MEAN_ANOMALY":109.5655,"EPHEMERIS_TYPE":0,"CLASSIFICATION_TYPE":"U","NORAD_CAT_ID":27811,"ELEMENT_SET_NO":999,"REV_AT_EPOCH":2882,"BSTAR":0,"MEAN_MOTION_DOT":-9.1e-7,"MEAN_MOTION_DDOT":0},{"OBJECT_NAME":"THURAYA-2","OBJECT_ID":"2003-026A","EPOCH":"2022-08-18T13:52:14.683008","MEAN_MOTION":1.0027246,"ECCENTRICITY":0.0002526,"INCLINATION":6.8036,"RA_OF_ASC_NODE":34.4865,"ARG_OF_PERICENTER":92.5223,"MEAN_ANOMALY":91.9674,"EPHEMERIS_TYPE":0,"CLASSIFICATION_TYPE":"U","NORAD_CAT_ID":27825,"ELEMENT_SET_NO":999,"REV_AT_EPOCH":7032,"BSTAR":0,"MEAN_MOTION_DOT":1.19e-6,"MEAN_MOTION_DDOT":0}]