METEOSAT-8 (MSG-1)      
1 27509U 02040B   22230.57751171  .00000126  00000+0  00000+0 0  9999
2 27509   8.1499  50.3105 0001570 121.2617  44.6920  1.00267986 73232
INTELSAT 906 (IS-906)   
1 27513U 02041A   22230.64197135  .00000006  00000+0  00000+0 0  9994
2 27513   2.2259  89.8131 0003073  52.8969 119.5184  1.00271068 73006
TDRS 10                 
1 27566U 02055A   22230.75034288  .00000080  00000+0  00000+0 0  9990
2 27566   8.3130  49.6094 0006510 354.3739  22.0846  1.00271648 72214
NSS-6                   
1 27603U 02057A   22230.56331427  .00000100  00000+0  00000+0 0  9991
2 27603   1.7636  90.9782 0003435  66.6374 202.5915  1.00276290 72016
NIMIQ 2                 
1 27632U 02062A   22230.63839201 -.00000076  00000+0  00000+0 0  9993
2 27632   6.1468  70.0623 0007231 101.4671 276.0567  1.00272866 30163
USA 167                 
1 27691U 03008A   22230.61358999  .00000044  00000+0  00000+0 0  9991
2 27691   8.1616  54.2199 0001951  64.6309 298.8894  1.00271103 18937
USA 169 (MILSTAR-2 4)   
1 27711U 03012A   22230.81474762 -.00000203  00000+0  00000+0 0  9996
2 27711  10.2155  39.8406 0002543 133.8745 238.8872  1.00273726 18936
GALAXY 12 (G-12)        
1 27715U 03013B   22230.61535880  .00000049  00000+0  00000+0 0  9995
2 27715   3.4223  84.9380 0001862  80.0913 254.4392  1.00271945 38063
ASIASAT 4               
1 27718U 03014A   22230.88564153 -.00000229  00000+0  00000+0 0  9994
2 27718   1.1211  93.3293 0002614  49.9343 290.3372  1.00271731 31278
HELLAS-SAT 2            
1 27811U 03020A   22230.85188097 -.00000091  00000+0  00000+0 0  9998
2 27811   3.8376  83.9389 0005814  70.3336 109.5655  1.00272759 28822
THURAYA-2               
1 27825U 03026A   22230.57794772  .00000119  00000+0  00000+0 0  9991
2 27825   6.8036  34.4865 0002526  92.5223  91.9674  1.00272460 70327
